[{"OBJECT_NAME":"OBJECT H","OBJECT_ID":"2025-055H","EPOCH":"2026-03-09T23:29:50.051328","MEAN_MOTION":15.30330066,"ECCENTRICITY":0.00075967,"INCLINATION":97.636,"RA_OF_ASC_NODE":211.9572,"ARG_OF_PERICENTER":140.4354,"MEAN_ANOMALY":219.7441,"EPHEMERIS_TYPE":0,"CLASSIFICATION_TYPE":"U","NORAD_CAT_ID":63298,"ELEMENT_SET_NO":999,"REV_AT_EPOCH":5423,"BSTAR":0.0015582864,"MEAN_MOTION_DOT":0.00045901,"MEAN_MOTION_DDOT":0},{"OBJECT_NAME":"STARLINK-33641","OBJECT_ID":"2025-087X","EPOCH":"2026-03-09T17:20:50.446176","MEAN_MOTION":15.3020494,"ECCENTRICITY":9.6e-5,"INCLINATION":53.1582,"RA_OF_ASC_NODE":219.4711,"ARG_OF_PERICENTER":99.8078,"MEAN_ANOMALY":260.3031,"EPHEMERIS_TYPE":0,"CLASSIFICATION_TYPE":"U","NORAD_CAT_ID":63718,"ELEMENT_SET_NO":999,"REV_AT_EPOCH":4920,"BSTAR":0.00094262608,"MEAN_MOTION_DOT":0.00027667,"MEAN_MOTION_DDOT":0}]
